0 FENGYUN 1C DEB
1 31562U 99025BZD 13281.67549804  .00001190  00000-0  49794-3 0  6253
2 31562 099.2802 076.0160 0071682 171.3457 188.9006 14.26751426336160
0 FENGYUN 1C DEB
1 31562U 99025BZD 13282.65730261  .00001432  00000-0  59500-3 0  6267
2 31562 099.2824 077.0695 0071944 167.9329 192.3594 14.26761845336301
0 FENGYUN 1C DEB
1 31562U 99025BZD 13285.67281444  .00001748  00000-0  72153-3 0  6276
2 31562 099.2763 080.2532 0071960 159.1711 201.2101 14.26768183336738
0 FENGYUN 1C DEB
1 31562U 99025BZD 13288.26755104  .00001449  00000-0  60130-3 0  6284
2 31562 099.2804 083.0092 0072270 151.2150 209.2853 14.26774272337101
0 FENGYUN 1C DEB
1 31562U 99025BZD 13289.67009970  .00001783  00000-0  73532-3 0  6295
2 31562 099.2838 084.5055 0071933 148.0502 212.5068 14.26786599337305
0 FENGYUN 1C DEB
1 31562U 99025BZD 13295.21010554  .00002066  00000-0  84866-3 0  6301
2 31562 099.2840 090.3807 0071875 132.3269 228.4029 14.26807125338098
